OBJECT_NAME,OBJECT_ID,EPOCH,MEAN_MOTION,ECCENTRICITY,INCLINATION,RA_OF_ASC_NODE,ARG_OF_PERICENTER,MEAN_ANOMALY,EPHEMERIS_TYPE,CLASSIFICATION_TYPE,NORAD_CAT_ID,ELEMENT_SET_NO,REV_AT_EPOCH,BSTAR,MEAN_MOTION_DOT,MEAN_MOTION_DDOT
IRIDIUM 135,2017-083A,2026-07-11T20:23:27.255264,14.34217799,.00021828,86.3983,311.7058,94.2021,265.9425,0,U,43070,999,44768,.36759334E-4,.123E-5,0
IRIDIUM 138,2017-083B,2026-07-11T20:59:59.193888,14.34217727,.0002066,86.3996,311.3945,92.0202,268.1231,0,U,43071,999,44767,.33246E-4,.113E-5,0
IRIDIUM 116,2017-083C,2026-07-11T20:14:19.021344,14.34216882,.0002398,86.3987,311.6942,99.6192,260.5275,0,U,43072,999,44770,.22686E-4,.83E-6,0
IRIDIUM 130,2017-083D,2026-07-11T19:28:39.375840,14.34217059,.00021811,86.3992,311.9851,100.5131,259.6311,0,U,43073,999,44764,.37407562E-4,.125E-5,0
IRIDIUM 151,2017-083E,2026-07-11T20:32:35.237760,14.34217398,.00022215,86.3986,311.7470,95.4202,264.7248,0,U,43074,999,44767,.44823797E-4,.145E-5,0
IRIDIUM 134,2017-083F,2026-07-11T19:46:55.218144,14.34217869,.000219,86.3986,311.7687,95.5619,264.5826,0,U,43075,999,44763,.36404233E-4,.122E-5,0
IRIDIUM 137,2017-083G,2026-07-11T20:05:11.344704,14.34217758,.00026534,86.3988,311.8567,94.9609,265.1889,0,U,43076,999,44770,.36342409E-4,.122E-5,0
IRIDIUM 141,2017-083H,2026-07-11T21:36:31.123008,14.34217398,.0002151,86.3984,311.6593,93.0534,267.0908,0,U,43077,999,44771,.3668E-4,.122E-5,0
IRIDIUM 153,2017-083J,2026-07-12T04:49:59.410848,14.34217620,.0002111,86.3960,280.0134,94.2419,265.9018,0,U,43078,999,44886,.13325E-4,.57E-6,0
IRIDIUM 131,2017-083K,2026-07-11T19:37:47.288352,14.34217446,.00022413,86.3990,311.8813,92.9657,267.1796,0,U,43079,999,44763,.5452845E-5,.35E-6,0
IRIDIUM 144,2018-030A,2026-07-12T04:59:07.435680,14.34217775,.0002367,86.3957,279.9393,98.3111,261.8353,0,U,43249,999,43372,.15411E-4,.63E-6,0
IRIDIUM 149,2018-030B,2026-07-12T05:08:15.459648,14.34217781,.0002251,86.3958,279.9033,93.5504,266.5949,0,U,43250,999,43374,.36066E-4,.121E-5,0
IRIDIUM 157,2018-030C,2026-07-12T05:35:39.651648,14.34217295,.0002243,86.3961,279.9493,94.1288,266.0164,0,U,43251,999,43372,.3871E-4,.128E-5,0
IRIDIUM 140,2018-030D,2026-07-12T04:22:35.590368,14.34216889,.0002221,86.3960,279.9831,95.4317,264.7132,0,U,43252,999,43377,.45076E-4,.146E-5,0
IRIDIUM 145,2018-030E,2026-07-12T04:04:19.284096,14.34217045,.0002458,86.3959,279.9602,100.7220,259.4253,0,U,43253,999,43370,.43039E-4,.14E-5,0
IRIDIUM 146,2018-030F,2026-07-12T05:17:23.385984,14.34217078,.0002246,86.3959,279.9513,97.3084,262.8367,0,U,43254,999,43372,-.26043E-5,.12E-6,0
IRIDIUM 148,2018-030G,2026-07-12T04:31:43.694688,14.34217343,.0002344,86.3962,280.0080,94.5825,265.5638,0,U,43255,999,43375,.46941E-4,.151E-5,0
IRIDIUM 142,2018-030H,2026-07-12T05:26:31.473024,14.34217953,.0002404,86.3956,279.8804,97.9956,262.1513,0,U,43256,999,43372,.38244E-4,.127E-5,0
IRIDIUM 150,2018-030J,2026-07-10T04:07:18.893280,14.34219143,.00022151,86.3963,280.8566,95.9860,264.1588,0,U,43257,999,43345,-.94435944E-4,-.245E-5,0
IRIDIUM 143,2018-030K,2026-07-12T04:13:27.460128,14.34217422,.0002317,86.3962,280.1121,96.6168,263.5291,0,U,43258,999,43367,.25134E-4,.9E-6,0
IRIDIUM 161,2018-047C,2026-07-11T03:46:43.203072,14.43284936,.00023067,86.4467,78.4474,78.8180,281.3280,0,U,43478,999,42859,.45078032E-4,.172E-5,0
IRIDIUM 152,2018-047D,2026-07-12T03:34:10.622784,14.34219431,.0002138,86.3939,77.8940,82.7975,277.3463,0,U,43479,999,42606,.44307E-4,.144E-5,0
IRIDIUM 147,2018-047E,2026-07-11T19:20:58.137216,14.34217175,.00022753,86.3941,78.0429,88.4643,271.6813,0,U,43480,999,42601,.4528695E-4,.147E-5,0
IRIDIUM 110,2018-047F,2026-07-12T02:11:58.331040,14.34217713,.0002174,86.3945,78.0162,76.6103,283.5334,0,U,43481,999,42604,.42044E-4,.138E-5,0
IRIDIUM 162,2018-047G,2026-07-10T02:40:06.655296,14.43283456,.00021871,86.4467,78.7759,84.2783,275.8667,0,U,43482,999,42843,.50126108E-4,.189E-5,0
IRIDIUM 160,2018-061A,2026-07-12T00:53:58.252992,14.34216236,.0002224,86.3944,46.4030,85.8405,274.3045,0,U,43569,999,41693,.32479E-4,.111E-5,0
IRIDIUM 166,2018-061B,2026-07-11T12:06:46.347840,14.34217869,.00022602,86.3940,46.5761,89.6407,270.5047,0,U,43570,999,41688,.3931712E-5,.31E-6,0
IRIDIUM 158,2018-061C,2026-07-12T00:44:50.477856,14.34217243,.0002064,86.3940,46.3656,86.2666,273.8765,0,U,43571,999,41692,.96238E-5,.47E-6,0
IRIDIUM 165,2018-061D,2026-07-12T01:21:22.423392,14.34217398,.0002253,86.3942,46.4021,90.3333,269.8121,0,U,43572,999,41695,.40121E-4,.132E-5,0
IRIDIUM 155,2018-061E,2026-07-12T00:26:34.431648,14.34217045,.000209,86.3939,46.2858,88.8676,271.2760,0,U,43573,999,41691,.15121E-4,.62E-6,0
